CCSDS_OMM_VERS = 2.0
CREATION_DATE  = 
ORIGINATOR     = 

OBJECT_NAME    = STARLINK-36918
OBJECT_ID      = 2026-037AA
CENTER_NAME    = EARTH
REF_FRAME      = TEME
TIME_SYSTEM    = UTC
MEAN_ELEMENT_THEORY = SGP/SGP4

EPOCH          = 2026-03-25T14:00:01.999872
MEAN_MOTION    = 15.50509996
ECCENTRICITY   = .00013546
INCLINATION    = 43.0000
RA_OF_ASC_NODE = 102.3805
ARG_OF_PERICENTER = 272.1522
MEAN_ANOMALY   = 140.9062

EPHEMERIS_TYPE = 0
CLASSIFICATION_TYPE = U
NORAD_CAT_ID   = 67956
ELEMENT_SET_NO = 999
REV_AT_EPOCH   = 575
BSTAR          = .1753183E-2
MEAN_MOTION_DOT = .103625E-2
MEAN_MOTION_DDOT = 0

CCSDS_OMM_VERS = 2.0
CREATION_DATE  = 
ORIGINATOR     = 

OBJECT_NAME    = STARLINK-36829
OBJECT_ID      = 2026-037AB
CENTER_NAME    = EARTH
REF_FRAME      = TEME
TIME_SYSTEM    = UTC
MEAN_ELEMENT_THEORY = SGP/SGP4

EPOCH          = 2026-03-25T14:00:01.999872
MEAN_MOTION    = 15.50514572
ECCENTRICITY   = .00007631
INCLINATION    = 43.0002
RA_OF_ASC_NODE = 102.6298
ARG_OF_PERICENTER = 280.0665
MEAN_ANOMALY   = 32.3896

EPHEMERIS_TYPE = 0
CLASSIFICATION_TYPE = U
NORAD_CAT_ID   = 67957
ELEMENT_SET_NO = 999
REV_AT_EPOCH   = 575
BSTAR          = .15343851E-2
MEAN_MOTION_DOT = .90511E-3
MEAN_MOTION_DDOT = 0

CCSDS_OMM_VERS = 2.0
CREATION_DATE  = 
ORIGINATOR     = 

OBJECT_NAME    = STARLINK-36799
OBJECT_ID      = 2026-037AC
CENTER_NAME    = EARTH
REF_FRAME      = TEME
TIME_SYSTEM    = UTC
MEAN_ELEMENT_THEORY = SGP/SGP4

EPOCH          = 2026-03-25T14:00:01.999872
MEAN_MOTION    = 15.50520848
ECCENTRICITY   = .00015115
INCLINATION    = 42.9999
RA_OF_ASC_NODE = 101.9749
ARG_OF_PERICENTER = 280.0353
MEAN_ANOMALY   = 296.8153

EPHEMERIS_TYPE = 0
CLASSIFICATION_TYPE = U
NORAD_CAT_ID   = 67958
ELEMENT_SET_NO = 999
REV_AT_EPOCH   = 575
BSTAR          = .12694881E-2
MEAN_MOTION_DOT = .74692E-3
MEAN_MOTION_DDOT = 0

CCSDS_OMM_VERS = 2.0
CREATION_DATE  = 
ORIGINATOR     = 

OBJECT_NAME    = STARLINK-36834
OBJECT_ID      = 2026-037AD
CENTER_NAME    = EARTH
REF_FRAME      = TEME
TIME_SYSTEM    = UTC
MEAN_ELEMENT_THEORY = SGP/SGP4

EPOCH          = 2026-03-25T14:00:01.999872
MEAN_MOTION    = 15.50583964
ECCENTRICITY   = .00013883
INCLINATION    = 43.0002
RA_OF_ASC_NODE = 102.5892
ARG_OF_PERICENTER = 275.9270
MEAN_ANOMALY   = 51.9625

EPHEMERIS_TYPE = 0
CLASSIFICATION_TYPE = U
NORAD_CAT_ID   = 67959
ELEMENT_SET_NO = 999
REV_AT_EPOCH   = 575
BSTAR          = -.54063166E-3
MEAN_MOTION_DOT = -.31934E-3
MEAN_MOTION_DDOT = 0

CCSDS_OMM_VERS = 2.0
CREATION_DATE  = 
ORIGINATOR     = 

OBJECT_NAME    = STARLINK-36841
OBJECT_ID      = 2026-037AE
CENTER_NAME    = EARTH
REF_FRAME      = TEME
TIME_SYSTEM    = UTC
MEAN_ELEMENT_THEORY = SGP/SGP4

EPOCH          = 2026-03-25T14:00:01.999872
MEAN_MOTION    = 15.50508836
ECCENTRICITY   = .00009829
INCLINATION    = 43.0000
RA_OF_ASC_NODE = 102.5351
ARG_OF_PERICENTER = 282.6000
MEAN_ANOMALY   = 67.5086

EPHEMERIS_TYPE = 0
CLASSIFICATION_TYPE = U
NORAD_CAT_ID   = 67960
ELEMENT_SET_NO = 999
REV_AT_EPOCH   = 575
BSTAR          = .16902342E-2
MEAN_MOTION_DOT = .99839E-3
MEAN_MOTION_DDOT = 0

CCSDS_OMM_VERS = 2.0
CREATION_DATE  = 
ORIGINATOR     = 

OBJECT_NAME    = STARLINK-36912
OBJECT_ID      = 2026-038A
CENTER_NAME    = EARTH
REF_FRAME      = TEME
TIME_SYSTEM    = UTC
MEAN_ELEMENT_THEORY = SGP/SGP4

EPOCH          = 2026-03-25T14:00:01.999872
MEAN_MOTION    = 15.33418650
ECCENTRICITY   = .00012076
INCLINATION    = 97.2853
RA_OF_ASC_NODE = 95.4076
ARG_OF_PERICENTER = 96.9239
MEAN_ANOMALY   = 170.6898

EPHEMERIS_TYPE = 0
CLASSIFICATION_TYPE = U
NORAD_CAT_ID   = 67961
ELEMENT_SET_NO = 999
REV_AT_EPOCH   = 575
BSTAR          = .55976178E-4
MEAN_MOTION_DOT = .1731E-4
MEAN_MOTION_DDOT = 0

CCSDS_OMM_VERS = 2.0
CREATION_DATE  = 
ORIGINATOR     = 

OBJECT_NAME    = STARLINK-36881
OBJECT_ID      = 2026-038B
CENTER_NAME    = EARTH
REF_FRAME      = TEME
TIME_SYSTEM    = UTC
MEAN_ELEMENT_THEORY = SGP/SGP4

EPOCH          = 2026-03-25T14:00:01.999872
MEAN_MOTION    = 15.34243141
ECCENTRICITY   = .00011654
INCLINATION    = 97.2846
RA_OF_ASC_NODE = 95.4133
ARG_OF_PERICENTER = 120.4704
MEAN_ANOMALY   = 159.4888

EPHEMERIS_TYPE = 0
CLASSIFICATION_TYPE = U
NORAD_CAT_ID   = 67962
ELEMENT_SET_NO = 999
REV_AT_EPOCH   = 575
BSTAR          = .11045278E-3
MEAN_MOTION_DOT = .3583E-4
MEAN_MOTION_DDOT = 0

CCSDS_OMM_VERS = 2.0
CREATION_DATE  = 
ORIGINATOR     = 

OBJECT_NAME    = STARLINK-36357
OBJECT_ID      = 2026-038C
CENTER_NAME    = EARTH
REF_FRAME      = TEME
TIME_SYSTEM    = UTC
MEAN_ELEMENT_THEORY = SGP/SGP4

EPOCH          = 2026-03-25T14:00:01.999872
MEAN_MOTION    = 15.44210621
ECCENTRICITY   = .00022129
INCLINATION    = 97.2855
RA_OF_ASC_NODE = 95.4084
ARG_OF_PERICENTER = 107.4156
MEAN_ANOMALY   = 164.2993

EPHEMERIS_TYPE = 0
CLASSIFICATION_TYPE = U
NORAD_CAT_ID   = 67963
ELEMENT_SET_NO = 999
REV_AT_EPOCH   = 575
BSTAR          = -.57361004E-1
MEAN_MOTION_DOT = -.2347679E-1
MEAN_MOTION_DDOT = 0

CCSDS_OMM_VERS = 2.0
CREATION_DATE  = 
ORIGINATOR     = 

OBJECT_NAME    = STARLINK-36349
OBJECT_ID      = 2026-038D
CENTER_NAME    = EARTH
REF_FRAME      = TEME
TIME_SYSTEM    = UTC
MEAN_ELEMENT_THEORY = SGP/SGP4

EPOCH          = 2026-03-25T14:00:01.999872
MEAN_MOTION    = 15.43432199
ECCENTRICITY   = .00021092
INCLINATION    = 97.2854
RA_OF_ASC_NODE = 95.4072
ARG_OF_PERICENTER = 88.9228
MEAN_ANOMALY   = 172.8183

EPHEMERIS_TYPE = 0
CLASSIFICATION_TYPE = U
NORAD_CAT_ID   = 67964
ELEMENT_SET_NO = 999
REV_AT_EPOCH   = 575
BSTAR          = -.56335296E-1
MEAN_MOTION_DOT = -.2215681E-1
MEAN_MOTION_DDOT = 0

CCSDS_OMM_VERS = 2.0
CREATION_DATE  = 
ORIGINATOR     = 

OBJECT_NAME    = STARLINK-36806
OBJECT_ID      = 2026-038E
CENTER_NAME    = EARTH
REF_FRAME      = TEME
TIME_SYSTEM    = UTC
MEAN_ELEMENT_THEORY = SGP/SGP4

EPOCH          = 2026-03-25T14:00:01.999872
MEAN_MOTION    = 15.34173735
ECCENTRICITY   = .00024091
INCLINATION    = 97.2853
RA_OF_ASC_NODE = 95.4350
ARG_OF_PERICENTER = 91.2202
MEAN_ANOMALY   = 236.0421

EPHEMERIS_TYPE = 0
CLASSIFICATION_TYPE = U
NORAD_CAT_ID   = 67965
ELEMENT_SET_NO = 999
REV_AT_EPOCH   = 575
BSTAR          = -.36710825E-1
MEAN_MOTION_DOT = -.1109686E-1
MEAN_MOTION_DDOT = 0

CCSDS_OMM_VERS = 2.0
CREATION_DATE  = 
ORIGINATOR     = 

OBJECT_NAME    = STARLINK-36820
OBJECT_ID      = 2026-038F
CENTER_NAME    = EARTH
REF_FRAME      = TEME
TIME_SYSTEM    = UTC
MEAN_ELEMENT_THEORY = SGP/SGP4

EPOCH          = 2026-03-25T14:00:01.999872
MEAN_MOTION    = 15.34801555
ECCENTRICITY   = .00014072
INCLINATION    = 97.2851
RA_OF_ASC_NODE = 95.4439
ARG_OF_PERICENTER = 86.7895
MEAN_ANOMALY   = 254.2553

EPHEMERIS_TYPE = 0
CLASSIFICATION_TYPE = U
NORAD_CAT_ID   = 67966
ELEMENT_SET_NO = 999
REV_AT_EPOCH   = 575
BSTAR          = -.26722764E-1
MEAN_MOTION_DOT = -.832619E-2
MEAN_MOTION_DDOT = 0

CCSDS_OMM_VERS = 2.0
CREATION_DATE  = 
ORIGINATOR     = 

OBJECT_NAME    = STARLINK-36819
OBJECT_ID      = 2026-038G
CENTER_NAME    = EARTH
REF_FRAME      = TEME
TIME_SYSTEM    = UTC
MEAN_ELEMENT_THEORY = SGP/SGP4

EPOCH          = 2026-03-25T10:44:15.227808
MEAN_MOTION    = 15.49224006
ECCENTRICITY   = .00013539
INCLINATION    = 97.2872
RA_OF_ASC_NODE = 95.1710
ARG_OF_PERICENTER = 2.7325
MEAN_ANOMALY   = 357.3933

EPHEMERIS_TYPE = 0
CLASSIFICATION_TYPE = U
NORAD_CAT_ID   = 67967
ELEMENT_SET_NO = 999
REV_AT_EPOCH   = 564
BSTAR          = .1028393E-2
MEAN_MOTION_DOT = .56311E-3
MEAN_MOTION_DDOT = 0

