STARLINK-36918          
1 67956U 26037AA  26084.58335648  .00103625  00000+0  17532-2 0  9999
2 67956  43.0000 102.3805 0001354 272.1522 140.9062 15.50509996  5753
STARLINK-36829          
1 67957U 26037AB  26084.58335648  .00090511  00000+0  15344-2 0  9998
2 67957  43.0002 102.6298 0000763 280.0665  32.3896 15.50514572  5759
STARLINK-36799          
1 67958U 26037AC  26084.58335648  .00074692  00000+0  12695-2 0  9997
2 67958  42.9999 101.9749 0001511 280.0353 296.8153 15.50520848  5758
STARLINK-36834          
1 67959U 26037AD  26084.58335648 -.00031934  00000+0 -54063-3 0  9998
2 67959  43.0002 102.5892 0001388 275.9270  51.9625 15.50583964  5757
STARLINK-36841          
1 67960U 26037AE  26084.58335648  .00099839  00000+0  16902-2 0  9995
2 67960  43.0000 102.5351 0000982 282.6000  67.5086 15.50508836  5751
STARLINK-36912          
1 67961U 26038A   26084.58335648  .00001731  00000+0  55976-4 0  9997
2 67961  97.2853  95.4076 0001207  96.9239 170.6898 15.33418650  5756
STARLINK-36881          
1 67962U 26038B   26084.58335648  .00003583  00000+0  11045-3 0  9993
2 67962  97.2846  95.4133 0001165 120.4704 159.4888 15.34243141  5752
STARLINK-36357          
1 67963U 26038C   26084.58335648 -.02347679  00000+0 -57361-1 0  9994
2 67963  97.2855  95.4084 0002212 107.4156 164.2993 15.44210621  5757
STARLINK-36349          
1 67964U 26038D   26084.58335648 -.02215681  00000+0 -56335-1 0  9992
2 67964  97.2854  95.4072 0002109  88.9228 172.8183 15.43432199  5753
STARLINK-36806          
1 67965U 26038E   26084.58335648 -.01109686  00000+0 -36711-1 0  9995
2 67965  97.2853  95.4350 0002409  91.2202 236.0421 15.34173735  5750
STARLINK-36820          
1 67966U 26038F   26084.58335648 -.00832619  00000+0 -26723-1 0  9996
2 67966  97.2851  95.4439 0001407  86.7895 254.2553 15.34801555  5757
STARLINK-36819          
1 67967U 26038G   26084.44739847  .00056311  00000+0  10284-2 0  9992
2 67967  97.2872  95.1710 0001353   2.7325 357.3933 15.49224006  5647
